     2.100          NAVIGATION                              RINEX VERSION / TYPE
fic2rin                                 06/23/2017 00:07:31 PGM / RUN BY / DATE
                                                            END OF HEADER
22 17  6 22 16  0  0.0 -.309329479933D-04 -.122781784739D-10  .000000000000D+00
     .440000000000D+02  .737500000000D+01  .586917304604D-08  .736655292467D+00
     .398606061935D-06  .752096064389D-02  .492110848427D-05  .515378255844D+04
     .403200000000D+06 -.104308128357D-06 -.189845202992D+01 -.113621354103D-06
     .923315967839D+00  .269062500000D+03 -.171357953198D+01 -.878036573748D-08
     .367872466222D-10  .100000000000D+01  .195400000000D+04  .000000000000D+00
     .240000000000D+01  .000000000000D+00 -.176951289177D-07  .440000000000D+02
     .396006000000D+06  .400000000000D+01
23 17  6 22 16  0  0.0 -.213964842260D-03 -.568434188608D-12  .000000000000D+00
     .100000000000D+02 -.512500000000D+01  .483698719422D-08 -.469781982019D-01
    -.169500708580D-06  .118287755176D-01  .104885548353D-04  .515372750664D+04
     .403200000000D+06  .111758708954D-06 -.813461195101D+00  .171363353729D-06
     .944192430570D+00  .170312500000D+03 -.244983668983D+01 -.822962851135D-08
    -.582881422208D-09  .100000000000D+01  .195400000000D+04  .000000000000D+00
     .240000000000D+01  .000000000000D+00 -.204890966415D-07  .100000000000D+02
     .396006000000D+06  .400000000000D+01
24 17  6 22 16  0  0.0 -.365418381989D-04 -.568434188608D-12  .000000000000D+00
     .310000000000D+02  .129625000000D+03  .467269463649D-08 -.630627895246D+00
     .692158937454D-05  .566826481372D-02  .949576497078D-05  .515369700241D+04
     .403200000000D+06  .540167093277D-07  .209145187897D+00  .353902578354D-07
     .945520075541D+00  .189906250000D+03  .484935662831D+00 -.819498421113D-08
     .208222959036D-09  .100000000000D+01  .195400000000D+04  .000000000000D+00
     .240000000000D+01  .000000000000D+00  .279396772385D-08  .310000000000D+02
     .396006000000D+06  .400000000000D+01
27 17  6 22 16  0  0.0  .280489213765D-03  .693489710102D-11  .000000000000D+00
     .740000000000D+02 -.151437500000D+03  .419124601079D-08  .133012867459D+01
    -.762566924095D-05  .488527817652D-02  .831671059132D-05  .515367257118D+04
     .403200000000D+06  .502914190292D-07  .233252150009D+01  .122934579849D-06
     .975145502290D+00  .225593750000D+03  .374292759070D+00 -.805676416800D-08
    -.439661170795D-09  .100000000000D+01  .195400000000D+04  .000000000000D+00
     .240000000000D+01  .000000000000D+00  .139698386192D-08  .740000000000D+02
     .396006000000D+06  .400000000000D+01
28 17  6 22 16  0  0.0  .623060856014D-03  .295585778076D-11  .000000000000D+00
     .800000000000D+02  .165937500000D+02  .429446459597D-08  .219397161849D+01
     .501051545143D-06  .197295453399D-01 -.739470124245D-06  .515365167809D+04
     .403200000000D+06  .193715095520D-06  .137136093727D+01 -.152736902237D-06
     .988112435101D+00  .404781250000D+03 -.156824120432D+01 -.811140930133D-08
    -.750031241812D-10  .100000000000D+01  .195400000000D+04  .000000000000D+00
     .240000000000D+01  .000000000000D+00 -.111758708954D-07  .800000000000D+02
     .396006000000D+06  .400000000000D+01
29 17  6 22 16  0  0.0  .592613127083D-03 -.363797880709D-11  .000000000000D+00
     .520000000000D+02 -.139281250000D+03  .387480425829D-08  .289917625545D+01
    -.746361911297D-05  .678718439303D-03  .800937414169D-05  .515362126541D+04
     .403200000000D+06 -.800937414169D-07  .239482170100D+01  .111758708954D-07
     .981436379187D+00  .233406250000D+03  .516979203928D+00 -.781496838194D-08
    -.389659088008D-09  .100000000000D+01  .195400000000D+04  .000000000000D+00
     .240000000000D+01  .000000000000D+00 -.977888703346D-08  .520000000000D+02
     .396006000000D+06  .400000000000D+01
30 17  6 22 16  0  0.0  .153061468154D-03 -.136424205266D-11  .000000000000D+00
     .910000000000D+02  .153875000000D+03  .461162066394D-08 -.148504329326D+01
     .766478478909D-05  .293752492871D-02  .965967774391D-05  .515367378998D+04
     .403200000000D+06  .409781932831D-07  .301539107331D+00 -.651925802231D-07
     .948179555279D+00  .185562500000D+03  .312634231193D+01 -.817569769348D-08
     .348228790841D-09  .100000000000D+01  .195400000000D+04  .000000000000D+00
     .340000000000D+01  .000000000000D+00  .372529029846D-08  .910000000000D+02
     .396006000000D+06  .400000000000D+01
31 17  6 22 16  0  0.0  .193056184798D-03 -.238742359215D-11  .000000000000D+00
     .110000000000D+02  .147125000000D+03  .429053586090D-08 -.168803156806D+01
     .736862421036D-05  .840753363445D-02  .899285078049D-05  .515372877121D+04
     .403200000000D+06 -.689178705215D-07  .274056672703D+00 -.931322574615D-07
     .967209088324D+00  .214656250000D+03 -.253874326565D+00 -.794711674360D-08
     .369301097159D-09  .100000000000D+01  .195400000000D+04  .000000000000D+00
     .240000000000D+01  .000000000000D+00 -.135041773319D-07  .110000000000D+02
     .396006000000D+06  .400000000000D+01
32 17  6 22 16  0  0.0 -.446379650384D-03 -.898126018001D-11  .000000000000D+00
     .640000000000D+02 -.590625000000D+01  .445018536808D-08  .194647668561D+01
    -.251457095146D-06  .131879094988D-02  .103563070297D-04  .515373669243D+04
     .403200000000D+06 -.130385160446D-07 -.811728627573D+00  .223517417908D-07
     .957815011080D+00  .173937500000D+03 -.256232592348D+01 -.788532845558D-08
    -.548951437459D-09  .100000000000D+01  .195400000000D+04  .000000000000D+00
     .240000000000D+01  .000000000000D+00  .465661287308D-09  .640000000000D+02
     .396006000000D+06  .400000000000D+01
 1 17  6 22 15 59 44.0  .561540946364D-04  .341060513165D-12  .000000000000D+00
     .100000000000D+02 -.152500000000D+02  .417374528182D-08 -.846410253230D+00
    -.882893800735D-06  .680607010145D-02  .119097530842D-04  .515368472672D+04
     .403184000000D+06  .206753611565D-06 -.289374196244D+01  .124797224998D-06
     .968070559819D+00  .153906250000D+03  .565350560960D+00 -.775389440940D-08
     .486091676241D-09  .100000000000D+01  .195400000000D+04  .000000000000D+00
     .240000000000D+01  .000000000000D+00  .558793544769D-08  .100000000000D+02
     .398946000000D+06  .400000000000D+01
 9 17  6 22 15 59 44.0  .390261877328D-03  .818545231596D-11  .000000000000D+00
     .000000000000D+00 -.123437500000D+02  .457804783693D-08  .131278791809D+01
    -.573694705963D-06  .691772205755D-03  .108834356070D-04  .515360711479D+04
     .403184000000D+06  .502914190292D-07 -.815048402700D+00 -.745058059692D-07
     .953326481440D+00  .164312500000D+03  .197817906250D+01 -.796068873750D-08
    -.588953103689D-09  .100000000000D+01  .195400000000D+04  .000000000000D+00
     .240000000000D+01  .000000000000D+00  .139698386192D-08  .000000000000D+00
     .399096000000D+06  .400000000000D+01
30 17  6 22 15 59 44.0  .153060536832D-03 -.136424205266D-11  .000000000000D+00
     .300000000000D+01  .153875000000D+03  .461126350621D-08 -.148737834751D+01
     .766478478909D-05  .293751759455D-02  .965967774391D-05  .515367379189D+04
     .403184000000D+06  .409781932831D-07  .301539249234D+00 -.651925802231D-07
     .948179552353D+00  .185562500000D+03  .312634362270D+01 -.817569769348D-08
     .348228790841D-09  .100000000000D+01  .195400000000D+04  .000000000000D+00
     .240000000000D+01  .000000000000D+00  .372529029846D-08  .300000000000D+01
     .401886000000D+06  .400000000000D+01
 1 17  6 22 17 59 44.0  .561568886042D-04  .341060513165D-12  .000000000000D+00
     .110000000000D+02 -.971875000000D+01  .429625038464D-08  .203771314865D+00
    -.458210706711D-06  .680692121387D-02  .114720314741D-04  .515368629456D+04
     .410384000000D+06  .260770320892D-07 -.289379851153D+01  .117346644402D-06
     .968073459322D+00  .157750000000D+03  .565341016883D+00 -.789211445253D-08
     .486805991709D-09  .100000000000D+01  .195400000000D+04  .000000000000D+00
     .240000000000D+01  .000000000000D+00  .558793544769D-08  .110000000000D+02
     .403206000000D+06  .400000000000D+01
 9 17  6 22 17 59 44.0  .390320550650D-03  .818545231596D-11  .000000000000D+00
     .500000000000D+01 -.496875000000D+01  .447982946002D-08  .236131774634D+01
    -.214204192162D-06  .691692228429D-03  .106692314148D-04  .515360927582D+04
     .410384000000D+06  .186264514923D-08 -.815104880116D+00  .409781932831D-07
     .953322392584D+00  .169500000000D+03  .197986964136D+01 -.785997025645D-08
    -.652884338110D-09  .100000000000D+01  .195400000000D+04  .000000000000D+00
     .240000000000D+01  .000000000000D+00  .139698386192D-08  .500000000000D+01
     .403206000000D+06  .400000000000D+01
30 17  6 22 17 59 44.0  .153051223606D-03 -.136424205266D-11  .000000000000D+00
     .400000000000D+01  .164312500000D+03  .459269130403D-08 -.437713281658D+00
     .849738717079D-05  .293669267558D-02  .913627445698D-05  .515367055511D+04
     .410384000000D+06  .912696123123D-07  .301480393114D+00 -.111758708954D-07
     .948182045165D+00  .192875000000D+03  .312686115631D+01 -.820069873488D-08
     .339657005220D-09  .100000000000D+01  .195400000000D+04  .000000000000D+00
     .240000000000D+01  .000000000000D+00  .372529029846D-08  .400000000000D+01
     .403206000000D+06  .400000000000D+01
 2 17  6 22 18  0  0.0  .392906367779D-03 -.818545231596D-11  .000000000000D+00
     .580000000000D+02 -.281250000000D+02  .477662753714D-08  .508341911761D+00
    -.130012631416D-05  .168013015063D-01  .119619071484D-04  .515381114769D+04
     .410400000000D+06 -.173225998878D-06 -.294771133203D+01  .106170773506D-06
     .947025481150D+00  .148093750000D+03 -.197138136203D+01 -.826998733531D-08
     .352871841386D-09  .100000000000D+01  .195400000000D+04  .000000000000D+00
     .240000000000D+01  .000000000000D+00 -.204890966415D-07  .580000000000D+02
     .403206000000D+06  .400000000000D+01
